     2.11           N: GPS NAV DATA                         RINEX VERSION / TYPE
teqc  2019Feb25                         20221121 12:28:02UTCPGM / RUN BY / DATE
OSX ker:10.11.6|Core i5|gcc 4.3 -m64|OSX ker:10.10+|=+      COMMENT
    1.0245D-08  7.4506D-09 -5.9605D-08 -5.9605D-08          ION ALPHA
    8.8064D+04  0.0000D+00 -1.9661D+05 -6.5536D+04          ION BETA
   -2.793967723846D-09-1.065814103640D-14   233472     1552 DELTA-UTC: A0,A1,T,W
                                                            END OF HEADER
 2 09 10  5  0  0  0.0 1.780274324119D-04 3.410605131648D-12 0.000000000000D+00
    1.900000000000D+01 8.943750000000D+01 4.827701093128D-09-1.445022894364D+00
    4.624947905540D-06 9.117716923356D-03 1.166202127934D-05 5.153725940704D+03
    8.640000000000D+04 7.450580596924D-09-2.790745845583D+00-1.471489667892D-07
    9.412013877643D-01 1.449375000000D+02 2.900084815350D+00-8.194984211129D-09
    3.114415442190D-10 1.000000000000D+00 1.552000000000D+03 0.000000000000D+00
    2.000000000000D+00 0.000000000000D+00-1.722946763039D-08 1.900000000000D+01
    8.335800000000D+04 4.000000000000D+00
 4 09 10  5  0  0  0.0-2.960148267448D-04-1.762145984685D-11 0.000000000000D+00
    1.180000000000D+02 9.237500000000D+01 4.831986985939D-09 1.381115389754D+00
    5.062669515610D-06 8.885350544006D-03 1.220963895321D-05 5.153562450409D+03
    8.640000000000D+04-5.029141902924D-08-2.772547706438D+00 1.601874828339D-07
    9.403780267480D-01 1.332187500000D+02 5.328222965874D-01-8.278559120931D-09
    1.267909956396D-10 1.000000000000D+00 1.552000000000D+03 0.000000000000D+00
    2.000000000000D+00 0.000000000000D+00-6.053596735001D-09 1.180000000000D+02
    8.335800000000D+04 4.000000000000D+00
12 09 10  5  0  0  0.0-2.091634087265D-04 5.570655048359D-12 0.000000000000D+00
    3.800000000000D+01 2.500000000000D+01 4.703767359362D-09-3.095433173102D+00
    1.305714249611D-06 3.072938416153D-03 4.094094038010D-06 5.153552093506D+03
    8.640000000000D+04-3.166496753693D-08 1.418939916429D+00 5.215406417847D-08
    9.678051030929D-01 3.009375000000D+02-5.827969884281D-01-8.224271145333D-09
    3.003696544589D-10 1.000000000000D+00 1.552000000000D+03 0.000000000000D+00
    2.000000000000D+00 0.000000000000D+00-1.164153218269D-08 3.800000000000D+01
    8.335800000000D+04 4.000000000000D+00
13 09 10  5  0  0  0.0 3.053625114262D-04 3.410605131648D-13 0.000000000000D+00
    9.000000000000D+00-1.193750000000D+02 3.755156417338D-09-8.336368088907D-01
   -6.236135959625D-06 3.963141236454D-03 8.665025234222D-06 5.153646734238D+03
    8.640000000000D+04-1.862645149231D-08-6.198375709514D-01 4.097819328308D-08
    9.944275203663D-01 2.292500000000D+02 1.662105507103D+00-7.842112369743D-09
   -5.264505002050D-10 1.000000000000D+00 1.552000000000D+03 0.000000000000D+00
    2.000000000000D+00 0.000000000000D+00-1.117587089539D-08 9.000000000000D+00
    8.335800000000D+04 4.000000000000D+00
20 09 10  5  0  0  0.0 7.073534652591D-05-9.094947017729D-13 0.000000000000D+00
    1.020000000000D+02 5.103125000000D+01 5.529873198558D-09 1.146171798062D+00
    2.574175596237D-06 3.861908568069D-03 1.363456249237D-06 5.153760183334D+03
    8.640000000000D+04-1.266598701477D-07-1.755995649410D+00-9.313225746155D-09
    9.399083949345D-01 3.413750000000D+02 1.315393302039D+00-8.924657462092D-09
    1.560779298437D-10 1.000000000000D+00 1.552000000000D+03 0.000000000000D+00
    2.000000000000D+00 0.000000000000D+00-7.450580596924D-09 1.020000000000D+02
    8.335800000000D+04 4.000000000000D+00
23 09 10  5  0  0  0.0 3.878823481500D-04-4.547473508865D-13 0.000000000000D+00
    7.700000000000D+01-1.216875000000D+02 4.254820087478D-09-1.537329392740D+00
   -6.409361958504D-06 6.393566029146D-03 8.154660463333D-06 5.153771120071D+03
    8.640000000000D+04-1.117587089539D-08-6.749426740715D-01-5.029141902924D-08
    9.697284585456D-01 2.256875000000D+02 2.984280856396D+00-8.074979212439D-09
   -4.546617956316D-10 1.000000000000D+00 1.552000000000D+03 0.000000000000D+00
    2.000000000000D+00 0.000000000000D+00-2.002343535423D-08 7.700000000000D+01
    8.335800000000D+04 4.000000000000D+00
30 09 10  5  0  0  0.0 1.822584308684D-04 3.069544618484D-12 0.000000000000D+00
    1.220000000000D+02 2.784375000000D+01 5.121284750638D-09 6.711630438119D-01
    1.301988959312D-06 1.193221041467D-02 4.494562745094D-06 5.153657222748D+03
    8.640000000000D+04-1.434236764908D-07 1.369060475184D+00-2.421438694000D-08
    9.529597717653D-01 2.894062500000D+02 1.459498395612D+00-8.675718521357D-09
    2.460816788611D-10 1.000000000000D+00 1.552000000000D+03 0.000000000000D+00
    2.800000000000D+00 0.000000000000D+00-7.916241884232D-09 1.220000000000D+02
    8.335800000000D+04 4.000000000000D+00
31 09 10  5  0  0  0.0-6.344867870212D-05 5.684341886081D-13 0.000000000000D+00
    1.020000000000D+02 1.303125000000D+01 3.831231014721D-09 2.954626715491D+00
    8.214265108109D-07 7.075865636580D-03 1.216679811478D-05 5.153801736832D+03
    8.640000000000D+04-3.725290298462D-09 3.646661934221D-01-3.725290298462D-09
    9.745758478416D-01 1.525625000000D+02-1.139644601378D+00-7.486026108750D-09
    3.618007847406D-10 1.000000000000D+00 1.552000000000D+03 0.000000000000D+00
    2.000000000000D+00 0.000000000000D+00-1.303851604462D-08 1.020000000000D+02
    8.335800000000D+04 4.000000000000D+00
29 09 10  5  0  0  0.0 6.324239075184D-05 3.183231456205D-12 0.000000000000D+00
    1.800000000000D+01-5.290625000000D+01 4.606620455661D-09 2.239834186587D+00
   -2.823770046234D-06 3.020203323103D-03 9.434297680855D-06 5.153599025726D+03
    8.640000000000D+04 3.166496753693D-08 2.487340550712D+00 2.421438694000D-08
    9.603127769275D-01 2.016875000000D+02-1.273633051746D+00-7.974260731396D-09
   -4.707338936704D-10 1.000000000000D+00 1.552000000000D+03 0.000000000000D+00
    2.000000000000D+00 0.000000000000D+00-8.847564458847D-09 1.800000000000D+01
    8.617800000000D+04 4.000000000000D+00
